NORAD_CAT_ID,OBJECT_NAME,OBJECT_TYPE,EPOCH,MEAN_MOTION,ECCENTRICITY,INCLINATION,RA_OF_ASC_NODE,ARG_OF_PERICENTER,MEAN_ANOMALY,BSTAR,MEAN_MOTION_DOT,MEAN_MOTION_DDOT,TLE_LINE0,TLE_LINE1,TLE_LINE2,SEMIMAJOR_AXIS,PERIOD,APOGEE,PERIGEE,DECAYED
52356.0,STARLINK-3801,PAYLOAD,2023-06-22 09:29:07,15.08834305,0.0001063,53.2175,329.241,106.952,253.1589,-2.093e-05,-6.21e-06,0.0,0 STARLINK-3801,1 52356U 22045AB  23173.39521996 -.00000621  00000-0 -20930-4 0  9993,2 52356  53.2175 329.2410 0001063 106.9520 253.1589 15.08834305 66136,6917.898,95.438,540.498,539.027,0.0
52356.0,STARLINK-3801,PAYLOAD,2023-06-22 17:26:02,15.08841853,0.0001017,53.2177,327.7567,95.2646,264.8462,0.00012445,1.693e-05,0.0,0 STARLINK-3801,1 52356U 22045AB  23173.72641703  .00001693  00000-0  12445-3 0  9998,2 52356  53.2177 327.7567 0001017  95.2646 264.8462 15.08841853 66182,6917.875,95.437,540.443,539.036,0.0
52356.0,STARLINK-3801,PAYLOAD,2023-06-23 10:55:17,15.08837005,0.0001008,53.2173,324.4855,98.4248,261.6858,8.8157e-05,1.115e-05,0.0,0 STARLINK-3801,1 52356U 22045AB  23174.45506034  .00001115  00000-0  88157-4 0  9999,2 52356  53.2173 324.4855 0001008  98.4248 261.6858 15.08837005 66295,6917.89,95.438,540.452,539.057,0.0
52356.0,STARLINK-3801,PAYLOAD,2023-06-24 15:32:13,15.08839497,0.0001141,53.2189,319.1336,93.5044,266.6078,6.1136e-05,6.85e-06,0.0,0 STARLINK-3801,1 52356U 22045AB  23175.64738295  .00000685  00000-0  61136-4 0  9996,2 52356  53.2189 319.1336 0001141  93.5044 266.6078 15.08839497 66471,6917.882,95.438,540.536,538.958,0.0
52356.0,STARLINK-3801,PAYLOAD,2023-06-25 16:58:23,15.08846456,8.59e-05,53.2183,314.3751,78.1812,281.9277,6.6135e-05,7.65e-06,0.0,0 STARLINK-3801,1 52356U 22045AB  23176.70721888  .00000765  00000-0  66135-4 0  9997,2 52356  53.2183 314.3751 0000859  78.1812 281.9277 15.08846456 66632,6917.861,95.437,540.32,539.131,0.0
52356.0,STARLINK-3801,PAYLOAD,2023-06-26 02:30:42,15.0884073,9.56e-05,53.2185,312.5916,79.7686,280.3414,5.3306e-05,5.61e-06,0.0,0 STARLINK-3801,1 52356U 22045AB  23177.10466291  .00000561  00000-0  53306-4 0  9996,2 52356  53.2185 312.5916 0000956  79.7686 280.3414 15.08840730 66692,6917.878,95.438,540.405,539.082,0.0
52356.0,STARLINK-3801,PAYLOAD,2023-06-26 15:13:48,15.08834253,9.77e-05,53.218,310.2122,87.4065,272.7039,6.4145e-05,7.33e-06,0.0,0 STARLINK-3801,1 52356U 22045AB  23177.63458852  .00000733  00000-0  64145-4 0  9992,2 52356  53.2180 310.2122 0000977  87.4065 272.7039 15.08834253 66771,6917.898,95.438,540.439,539.087,0.0
52356.0,STARLINK-3801,PAYLOAD,2023-06-27 15:04:35,15.08843603,9.79e-05,53.2182,305.7506,88.1066,272.0039,6.6966e-05,7.78e-06,0.0,0 STARLINK-3801,1 52356U 22045AB  23178.62818399  .00000778  00000-0  66966-4 0  9990,2 52356  53.2182 305.7506 0000979  88.1066 272.0039 15.08843603 66928,6917.869,95.437,540.412,539.057,0.0
52356.0,STARLINK-3801,PAYLOAD,2023-06-28 08:33:49,15.08835929,9.34e-05,53.2192,302.4801,92.2856,267.8243,0.00010897,1.447e-05,0.0,0 STARLINK-3801,1 52356U 22045AB  23179.35682739  .00001447  00000-0  10897-3 0  9993,2 52356  53.2192 302.4801 0000934  92.2856 267.8243 15.08835929 67039,6917.893,95.438,540.404,539.112,0.0
52356.0,STARLINK-3801,PAYLOAD,2023-06-28 14:55:24,15.0874304,0.0001191,53.219,301.2921,117.6967,242.4146,0.0014656,0.00023052,0.0,0 STARLINK-3801,1 52356U 22045AB  23179.62180556  .00023052  00000-0  14656-2 0  9995,2 52356  53.2190 301.2921 0001191 117.6967 242.4146 15.08743040 67075,6918.177,95.444,540.866,539.218,0.0
52356.0,STARLINK-3801,PAYLOAD,2023-06-28 19:41:31,15.08830873,9.54e-05,53.2194,300.3989,89.4419,270.6683,0.00034503,5.206e-05,0.0,0 STARLINK-3801,1 52356U 22045AB  23179.82050587  .00005206  00000-0  34503-3 0  9992,2 52356  53.2194 300.3989 0000954  89.4419 270.6683 15.08830873 67101,6917.908,95.438,540.433,539.113,0.0
52356.0,STARLINK-3801,PAYLOAD,2023-06-29 08:24:37,15.08831293,8.01e-05,53.2193,298.0226,77.4135,282.6947,1.1097e-05,-1.11e-06,0.0,0 STARLINK-3801,1 52356U 22045AB  23180.35043464 -.00000111  00000-0  11097-4 0  9993,2 52356  53.2193 298.0226 0000801  77.4135 282.6947 15.08831293 67181,6917.907,95.438,540.326,539.218,0.0
52356.0,STARLINK-3801,PAYLOAD,2023-06-29 14:46:09,15.08842338,0.0001053,53.2186,296.8323,96.2482,263.8631,5.9009e-05,6.52e-06,0.0,0 STARLINK-3801,1 52356U 22045AB  23180.61538634  .00000652  00000-0  59009-4 0  9994,2 52356  53.2186 296.8323 0001053  96.2482 263.8631 15.08842338 67229,6917.873,95.437,540.467,539.01,0.0
52356.0,STARLINK-3801,PAYLOAD,2023-06-30 14:36:56,15.08839546,9.81e-05,53.2181,292.3718,90.0073,270.1032,4.1205e-05,3.68e-06,0.0,0 STARLINK-3801,1 52356U 22045AB  23181.60898969  .00000368  00000-0  41205-4 0  9997,2 52356  53.2181 292.3718 0000981  90.0073 270.1032 15.08839546 67379,6917.882,95.438,540.425,539.068,0.0
52356.0,STARLINK-3801,PAYLOAD,2023-07-01 08:06:11,15.08831095,0.0001009,53.2178,289.101,98.9411,261.1695,7.0549e-05,8.35e-06,0.0,0 STARLINK-3801,1 52356U 22045AB  23182.33763683  .00000835  00000-0  70549-4 0  9994,2 52356  53.2178 289.1010 0001009  98.9411 261.1695 15.08831095 67487,6917.908,95.438,540.471,539.075,0.0
52356.0,STARLINK-3801,PAYLOAD,2023-07-01 14:27:43,15.08838597,0.0001011,53.2174,287.9113,93.2716,266.8392,2.7275e-05,1.46e-06,0.0,0 STARLINK-3801,1 52356U 22045AB  23182.60259028  .00000146  00000-0  27275-4 0  9990,2 52356  53.2174 287.9113 0001011  93.2716 266.8392 15.08838597 67527,6917.885,95.438,540.449,539.05,0.0
52356.0,STARLINK-3801,PAYLOAD,2023-07-02 14:18:31,15.08830171,0.0001017,53.2173,283.4504,86.7352,273.3756,0.00031982,4.804e-05,0.0,0 STARLINK-3801,1 52356U 22045AB  23183.59619630  .00004804  00000-0  31982-3 0  9992,2 52356  53.2173 283.4504 0001017  86.7352 273.3756 15.08830171 67673,6917.91,95.438,540.479,539.072,0.0
52356.0,STARLINK-3801,PAYLOAD,2023-07-03 12:33:56,15.08800987,0.0001295,53.2177,279.2858,92.9694,267.1446,0.00085033,0.00013257,0.0,0 STARLINK-3801,1 52356U 22045AB  23184.52356631  .00013257  00000-0  85033-3 0  9993,2 52356  53.2177 279.2858 0001295  92.9694 267.1446 15.08800987 67813,6918.0,95.44,540.761,538.969,0.0
52356.0,STARLINK-3801,PAYLOAD,2023-07-03 15:44:40,15.08849321,0.0001003,53.2175,278.6918,92.5734,267.5373,0.00016766,2.382e-05,0.0,0 STARLINK-3801,1 52356U 22045AB  23184.65602655  .00002382  00000-0  16766-3 0  9991,2 52356  53.2175 278.6918 0001003  92.5734 267.5373 15.08849321 67839,6917.852,95.437,540.411,539.023,0.0
52356.0,STARLINK-3801,PAYLOAD,2023-07-03 23:41:36,15.08840286,9.58e-05,53.2174,277.2034,86.6761,273.434,4.7744e-05,4.72e-06,0.0,0 STARLINK-3801,1 52356U 22045AB  23184.98723183  .00000472  00000-0  47744-4 0  9996,2 52356  53.2174 277.2034 0000958  86.6761 273.4340 15.08840286 67880,6917.88,95.438,540.407,539.082,0.0
52356.0,STARLINK-3801,PAYLOAD,2023-07-05 09:04:42,15.08841074,0.0001055,53.2165,270.9614,79.4214,280.6897,8.9039e-05,1.13e-05,0.0,0 STARLINK-3801,1 52356U 22045AB  23186.37827319  .00001130  00000-0  89039-4 0  9992,2 52356  53.2165 270.9614 0001055  79.4214 280.6897 15.08841074 68093,6917.877,95.437,540.472,539.012,0.0
52356.0,STARLINK-3801,PAYLOAD,2023-07-06 15:17:01,15.08846508,0.0001079,53.2172,265.3114,78.2299,281.8814,0.00013208,1.815e-05,0.0,0 STARLINK-3801,1 52356U 22045AB  23187.63682799  .00001815  00000-0  13208-3 0  9997,2 52356  53.2172 265.3114 0001079  78.2299 281.8814 15.08846508 68280,6917.86,95.437,540.472,538.979,0.0
52356.0,STARLINK-3801,PAYLOAD,2023-07-07 04:00:07,15.08839654,0.0001075,53.2169,262.9323,77.3677,282.7436,0.00010618,1.402e-05,0.0,0 STARLINK-3801,1 52356U 22045AB  23188.16675347  .00001402  00000-0  10618-3 0  9991,2 52356  53.2169 262.9323 0001075  77.3677 282.7436 15.08839654 68360,6917.881,95.438,540.49,539.003,0.0
52356.0,STARLINK-3801,PAYLOAD,2023-07-08 08:37:04,15.08837862,0.0001014,53.217,257.5803,82.3368,277.7739,4.5098e-05,4.3e-06,0.0,0 STARLINK-3801,1 52356U 22045AB  23189.35907511  .00000430  00000-0  45098-4 0  9995,2 52356  53.2170 257.5803 0001014  82.3368 277.7739 15.08837862 68540,6917.887,95.438,540.453,539.05,0.0
52356.0,STARLINK-3801,PAYLOAD,2023-07-09 05:17:05,15.08830485,9.95e-05,53.2176,253.7155,89.0612,271.0494,-6.7927e-06,-3.96e-06,0.0,0 STARLINK-3801,1 52356U 22045AB  23190.22020265 -.00000396  00000-0 -67927-5 0  9994,2 52356  53.2176 253.7155 0000995  89.0612 271.0494 15.08830485 68670,6917.909,95.438,540.463,539.086,0.0
52356.0,STARLINK-3801,PAYLOAD,2023-07-10 05:07:52,15.08838112,9.96e-05,53.2167,249.2545,84.4975,275.6131,9.3522e-05,1.201e-05,0.0,0 STARLINK-3801,1 52356U 22045AB  23191.21379726  .00001201  00000-0  93522-4 0  9996,2 52356  53.2167 249.2545 0000996  84.4975 275.6131 15.08838112 68825,6917.886,95.438,540.44,539.062,0.0
52356.0,STARLINK-3801,PAYLOAD,2023-07-11 09:44:48,15.08839768,0.0001099,53.2172,243.9015,83.562,276.5497,0.00011256,1.504e-05,0.0,0 STARLINK-3801,1 52356U 22045AB  23192.40611784  .00001504  00000-0  11256-3 0  9990,2 52356  53.2172 243.9015 0001099  83.5620 276.5497 15.08839768 69000,6917.881,95.438,540.506,538.986,0.0
52356.0,STARLINK-3801,PAYLOAD,2023-07-13 09:26:22,15.08838887,0.0001166,53.217,234.9806,87.1346,272.9779,2.1058e-05,4.7e-07,0.0,0 STARLINK-3801,1 52356U 22045AB  23194.39331946  .00000047  00000-0  21058-4 0  9992,2 52356  53.2170 234.9806 0001166  87.1346 272.9779 15.08838887 69303,6917.884,95.438,540.555,538.942,0.0
52356.0,STARLINK-3801,PAYLOAD,2023-07-15 02:46:24,15.08839759,0.0001096,53.2165,227.2486,95.6854,264.4263,8.1142e-05,1.004e-05,0.0,0 STARLINK-3801,1 52356U 22045AB  23196.11555881  .00001004  00000-0  81142-4 0  9994,2 52356  53.2165 227.2486 0001096  95.6854 264.4263 15.08839759 69567,6917.881,95.438,540.504,538.988,0.0
52356.0,STARLINK-3801,PAYLOAD,2023-07-15 18:40:16,15.08828649,0.0001236,53.2166,224.275,92.6096,267.5038,5.1204e-07,-2.8e-06,0.0,0 STARLINK-3801,1 52356U 22045AB  23196.77796934 -.00000280  00000-0  51204-6 0  9996,2 52356  53.2166 224.2750 0001236  92.6096 267.5038 15.08828649 69661,6917.915,95.438,540.635,538.925,0.0
